start=new Date('2021-12-07T00:00:00.000Z').valueOf();
sats=[{"MEAN_MOTION_DOT":"0.00001400","OBJECT_NAME":"STARLINK-1878","NORAD_CAT_ID":"47163","INCLINATION":"53.0405","COUNTRY_CODE":"US","OBJECT_TYPE":"PAYLOAD","LAUNCH_DATE":"2020-11-25","ELEMENT_SET_NO":"999","EPHEMERIS_TYPE":"0","MEAN_ELEMENT_THEORY":"SGP4","MEAN_MOTION":"15.06397028","TLE_LINE2":"2 47163  53.0405  87.2529 0001233  77.8558 282.2569 15.06397028 57492","ECCENTRICITY":"0.00012330","MEAN_ANOMALY":"282.2569","REV_AT_EPOCH":"5749","MEAN_MOTION_DDOT":"0.0000000000000","SEMIMAJOR_AXIS":"6925.358","REF_FRAME":"TEME","BSTAR":"0.00011287000000","FILE":"3234296","EPOCH":"2021-12-06T19:47:51.282240","CENTER_NAME":"EARTH","RA_OF_ASC_NODE":"87.2529","APOAPSIS":"548.077","RCS_SIZE":"LARGE","GP_ID":"191234125","PERIOD":"95.592","TLE_LINE1":"1 47163U 20088AT  21340.82489910  .00001400  00000-0  11287-3 0  9997","SITE":"AFETR","OBJECT_ID":"2020-088AT","TIME_SYSTEM":"UTC","CLASSIFICATION_TYPE":"U","PERIAPSIS":"546.369","DECAY_DATE":null,"ARG_OF_PERICENTER":"77.8558"},{"RA_OF_ASC_NODE":"58.7247","EPOCH":"2021-12-06T11:32:55.993632","FILE":"3234035","CENTER_NAME":"EARTH","SITE":"AFETR","OBJECT_ID":"2020-088AU","TLE_LINE1":"1 47164U 20088AU  21340.48120363  .00001386  00000-0  11198-3 0  9998","RCS_SIZE":"LARGE","GP_ID":"191205275","APOAPSIS":"548.336","PERIOD":"95.594","CLASSIFICATION_TYPE":"U","TIME_SYSTEM":"UTC","PERIAPSIS":"546.265","DECAY_DATE":null,"ARG_OF_PERICENTER":"83.3050","NORAD_CAT_ID":"47164","OBJECT_NAME":"STARLINK-1879","MEAN_MOTION_DOT":"0.00001386","ELEMENT_SET_NO":"999","EPHEMERIS_TYPE":"0","COUNTRY_CODE":"US","INCLINATION":"53.0560","LAUNCH_DATE":"2020-11-25","OBJECT_TYPE":"PAYLOAD","ECCENTRICITY":"0.00014950","TLE_LINE2":"2 47164  53.0560  58.7247 0001495  83.3050 276.8109 15.06371736 57862","MEAN_MOTION":"15.06371736","MEAN_ELEMENT_THEORY":"SGP4","REF_FRAME":"TEME","BSTAR":"0.00011198000000","SEMIMAJOR_AXIS":"6925.435","MEAN_ANOMALY":"276.8109","MEAN_MOTION_DDOT":"0.0000000000000","REV_AT_EPOCH":"5786"},{"OBJECT_NAME":"STARLINK-1880","MEAN_MOTION_DOT":"-0.00000250","NORAD_CAT_ID":"47165","COUNTRY_CODE":"US","INCLINATION":"53.0547","LAUNCH_DATE":"2020-11-25","OBJECT_TYPE":"PAYLOAD","ELEMENT_SET_NO":"999","EPHEMERIS_TYPE":"0","TLE_LINE2":"2 47165  53.0547  77.8106 0001418  71.9826 288.1317 15.06392301 57614","MEAN_MOTION":"15.06392301","MEAN_ELEMENT_THEORY":"SGP4","ECCENTRICITY":"0.00014180","MEAN_ANOMALY":"288.1317","MEAN_MOTION_DDOT":"0.0000000000000","REV_AT_EPOCH":"5761","BSTAR":"0.00000212170000","REF_FRAME":"TEME","SEMIMAJOR_AXIS":"6925.372","EPOCH":"2021-12-06T16:27:29.902464","FILE":"3234296","CENTER_NAME":"EARTH","RA_OF_ASC_NODE":"77.8106","GP_ID":"191235127","RCS_SIZE":"LARGE","APOAPSIS":"548.219","PERIOD":"95.593","SITE":"AFETR","OBJECT_ID":"2020-088AV","TLE_LINE1":"1 47165U 20088AV  21340.68576276 -.00000250  00000-0  21217-5 0  9994","CLASSIFICATION_TYPE":"U","TIME_SYSTEM":"UTC","PERIAPSIS":"546.255","DECAY_DATE":null,"ARG_OF_PERICENTER":"71.9826"},{"ARG_OF_PERICENTER":"63.6737","DECAY_DATE":null,"PERIAPSIS":"469.325","TIME_SYSTEM":"UTC","CLASSIFICATION_TYPE":"U","TLE_LINE1":"1 47166U 20088AW  21340.62592267  .00017985  00000-0  58902-3 0  9998","SITE":"AFETR","OBJECT_ID":"2020-088AW","PERIOD":"94.010","APOAPSIS":"471.881","GP_ID":"191235878","RCS_SIZE":"LARGE","RA_OF_ASC_NODE":"34.4977","CENTER_NAME":"EARTH","FILE":"3234296","EPOCH":"2021-12-06T15:01:19.718688","SEMIMAJOR_AXIS":"6848.738","REF_FRAME":"TEME","BSTAR":"0.00058902000000","MEAN_MOTION_DDOT":"0.0000000000000","REV_AT_EPOCH":"5822","MEAN_ANOMALY":"296.4455","ECCENTRICITY":"0.00018660","MEAN_ELEMENT_THEORY":"SGP4","TLE_LINE2":"2 47166  53.0506  34.4977 0001866  63.6737 296.4455 15.31746564 58226","MEAN_MOTION":"15.31746564","EPHEMERIS_TYPE":"0","ELEMENT_SET_NO":"999","OBJECT_TYPE":"PAYLOAD","LAUNCH_DATE":"2020-11-25","COUNTRY_CODE":"US","INCLINATION":"53.0506","NORAD_CAT_ID":"47166","MEAN_MOTION_DOT":"0.00017985","OBJECT_NAME":"STARLINK-1881"},{"TLE_LINE1":"1 47167U 20088AX  21340.53833194  .00001747  00000-0  13627-3 0  9990","OBJECT_ID":"2020-088AX","SITE":"AFETR","PERIOD":"95.592","APOAPSIS":"551.954","RCS_SIZE":"LARGE","GP_ID":"191212132","RA_OF_ASC_NODE":"78.4805","CENTER_NAME":"EARTH","FILE":"3234218","EPOCH":"2021-12-06T12:55:11.879616","ARG_OF_PERICENTER":"81.5527","DECAY_DATE":null,"PERIAPSIS":"542.494","TIME_SYSTEM":"UTC","CLASSIFICATION_TYPE":"U","EPHEMERIS_TYPE":"0","ELEMENT_SET_NO":"999","OBJECT_TYPE":"PAYLOAD","LAUNCH_DATE":"2020-11-25","COUNTRY_CODE":"US","INCLINATION":"53.0544","NORAD_CAT_ID":"47167","MEAN_MOTION_DOT":"0.00001747","OBJECT_NAME":"STARLINK-1884","SEMIMAJOR_AXIS":"6925.359","BSTAR":"0.00013627000000","REF_FRAME":"TEME","MEAN_MOTION_DDOT":"0.0000000000000","REV_AT_EPOCH":"5789","MEAN_ANOMALY":"278.6236","ECCENTRICITY":"0.00068300","MEAN_ELEMENT_THEORY":"SGP4","TLE_LINE2":"2 47167  53.0544  78.4805 0006830  81.5527 278.6236 15.06396719 57895","MEAN_MOTION":"15.06396719"},{"ECCENTRICITY":"0.00014800","MEAN_ELEMENT_THEORY":"SGP4","MEAN_MOTION":"15.26486553","TLE_LINE2":"2 47168  53.0577  75.5757 0001480  64.5046 295.6104 15.26486553 57654","SEMIMAJOR_AXIS":"6864.462","REF_FRAME":"TEME","BSTAR":"0.00163980000000","MEAN_ANOMALY":"295.6104","REV_AT_EPOCH":"5765","MEAN_MOTION_DDOT":"0.0000000000000","NORAD_CAT_ID":"47168","MEAN_MOTION_DOT":"0.00043263","OBJECT_NAME":"STARLINK-1885","ELEMENT_SET_NO":"999","EPHEMERIS_TYPE":"0","INCLINATION":"53.0577","COUNTRY_CODE":"US","OBJECT_TYPE":"PAYLOAD","LAUNCH_DATE":"2020-11-25","TIME_SYSTEM":"UTC","CLASSIFICATION_TYPE":"U","PERIAPSIS":"485.311","DECAY_DATE":null,"ARG_OF_PERICENTER":"64.5046","RA_OF_ASC_NODE":"75.5757","FILE":"3234296","EPOCH":"2021-12-06T17:53:27.821760","CENTER_NAME":"EARTH","TLE_LINE1":"1 47168U 20088AY  21340.74546090  .00043263  00000-0  16398-2 0  9996","SITE":"AFETR","OBJECT_ID":"2020-088AY","APOAPSIS":"487.343","RCS_SIZE":"LARGE","GP_ID":"191234376","PERIOD":"94.334"},{"EPHEMERIS_TYPE":"0","ELEMENT_SET_NO":"999","LAUNCH_DATE":"2020-11-25","OBJECT_TYPE":"PAYLOAD","COUNTRY_CODE":"US","INCLINATION":"53.0551","NORAD_CAT_ID":"47170","OBJECT_NAME":"STARLINK-1887","MEAN_MOTION_DOT":"0.00000090","BSTAR":"0.00002496500000","REF_FRAME":"TEME","SEMIMAJOR_AXIS":"6925.378","REV_AT_EPOCH":"5759","MEAN_MOTION_DDOT":"0.0000000000000","MEAN_ANOMALY":"288.3029","ECCENTRICITY":"0.00012710","MEAN_MOTION":"15.06390329","TLE_LINE2":"2 47170  53.0551  78.5445 0001271  71.8099 288.3029 15.06390329 57594","MEAN_ELEMENT_THEORY":"SGP4","SITE":"AFETR","OBJECT_ID":"2020-088BA","TLE_LINE1":"1 47170U 20088BA  21340.52357941  .00000090  00000-0  24965-4 0  9992","PERIOD":"95.593","RCS_SIZE":"LARGE","GP_ID":"191206027","APOAPSIS":"548.123","RA_OF_ASC_NODE":"78.5445","CENTER_NAME":"EARTH","EPOCH":"2021-12-06T12:33:57.261024","FILE":"3234035","DECAY_DATE":null,"ARG_OF_PERICENTER":"71.8099","PERIAPSIS":"546.363","CLASSIFICATION_TYPE":"U","TIME_SYSTEM":"UTC"},{"TLE_LINE1":"1 47171U 20088BB  21340.87466569  .00000076  00000-0  24000-4 0  9992","OBJECT_ID":"2020-088BB","SITE":"AFETR","PERIOD":"95.593","APOAPSIS":"548.102","GP_ID":"191235378","RCS_SIZE":"LARGE","RA_OF_ASC_NODE":"66.9722","CENTER_NAME":"EARTH","FILE":"3234296","EPOCH":"2021-12-06T20:59:31.115616","DECAY_DATE":null,"ARG_OF_PERICENTER":"74.9768","PERIAPSIS":"546.379","TIME_SYSTEM":"UTC","CLASSIFICATION_TYPE":"U","EPHEMERIS_TYPE":"0","ELEMENT_SET_NO":"999","OBJECT_TYPE":"PAYLOAD","LAUNCH_DATE":"2020-11-25","INCLINATION":"53.0567","COUNTRY_CODE":"US","NORAD_CAT_ID":"47171","MEAN_MOTION_DOT":"0.00000076","OBJECT_NAME":"STARLINK-1888","SEMIMAJOR_AXIS":"6925.376","REF_FRAME":"TEME","BSTAR":"0.00002400000000","REV_AT_EPOCH":"5778","MEAN_MOTION_DDOT":"0.0000000000000","MEAN_ANOMALY":"285.1358","ECCENTRICITY":"0.00012440","MEAN_ELEMENT_THEORY":"SGP4","TLE_LINE2":"2 47171  53.0567  66.9722 0001244  74.9768 285.1358 15.06391070 57783","MEAN_MOTION":"15.06391070"},{"NORAD_CAT_ID":"47172","OBJECT_NAME":"STARLINK-1889","MEAN_MOTION_DOT":"0.00031440","ELEMENT_SET_NO":"999","EPHEMERIS_TYPE":"0","COUNTRY_CODE":"US","INCLINATION":"53.0550","LAUNCH_DATE":"2020-11-25","OBJECT_TYPE":"PAYLOAD","ECCENTRICITY":"0.00021930","TLE_LINE2":"2 47172  53.0550  50.1597 0002193  15.7843 344.3242 15.70518884 58025","MEAN_MOTION":"15.70518884","MEAN_ELEMENT_THEORY":"SGP4","REF_FRAME":"TEME","BSTAR":"0.00025468000000","SEMIMAJOR_AXIS":"6735.550","MEAN_ANOMALY":"344.3242","REV_AT_EPOCH":"5802","MEAN_MOTION_DDOT":"0.0000000000000","RA_OF_ASC_NODE":"50.1597","EPOCH":"2021-12-06T21:43:59.507040","FILE":"3234296","CENTER_NAME":"EARTH","OBJECT_ID":"2020-088BC","SITE":"AFETR","TLE_LINE1":"1 47172U 20088BC  21340.90554985  .00031440  00000-0  25468-3 0  9994","GP_ID":"191234126","RCS_SIZE":"LARGE","APOAPSIS":"358.892","PERIOD":"91.689","CLASSIFICATION_TYPE":"U","TIME_SYSTEM":"UTC","PERIAPSIS":"355.938","DECAY_DATE":null,"ARG_OF_PERICENTER":"15.7843"},{"SITE":"AFETR","OBJECT_ID":"2020-088BD","TLE_LINE1":"1 47173U 20088BD  21340.53463113  .00001921  00000-0  14783-3 0  9995","PERIOD":"95.592","RCS_SIZE":"LARGE","GP_ID":"191205276","APOAPSIS":"548.245","RA_OF_ASC_NODE":"78.4647","CENTER_NAME":"EARTH","EPOCH":"2021-12-06T12:49:52.129632","FILE":"3234035","ARG_OF_PERICENTER":"78.0650","DECAY_DATE":null,"PERIAPSIS":"546.207","CLASSIFICATION_TYPE":"U","TIME_SYSTEM":"UTC","EPHEMERIS_TYPE":"0","ELEMENT_SET_NO":"999","LAUNCH_DATE":"2020-11-25","OBJECT_TYPE":"PAYLOAD","COUNTRY_CODE":"US","INCLINATION":"53.0555","NORAD_CAT_ID":"47173","OBJECT_NAME":"STARLINK-1890","MEAN_MOTION_DOT":"0.00001921","BSTAR":"0.00014783000000","REF_FRAME":"TEME","SEMIMAJOR_AXIS":"6925.361","REV_AT_EPOCH":"5759","MEAN_MOTION_DDOT":"0.0000000000000","MEAN_ANOMALY":"282.0504","ECCENTRICITY":"0.00014720","TLE_LINE2":"2 47173  53.0555  78.4647 0001472  78.0650 282.0504 15.06395936 57597","MEAN_MOTION":"15.06395936","MEAN_ELEMENT_THEORY":"SGP4"}];
